[{"OBJECT_NAME":"STARLINK-5134","OBJECT_ID":"2022-125N","EPOCH":"2026-03-09T15:19:52.432320","MEAN_MOTION":15.08839594,"ECCENTRICITY":0.0001085,"INCLINATION":53.2167,"RA_OF_ASC_NODE":204.4704,"ARG_OF_PERICENTER":87.3803,"MEAN_ANOMALY":272.7313,"EPHEMERIS_TYPE":0,"CLASSIFICATION_TYPE":"U","NORAD_CAT_ID":53976,"ELEMENT_SET_NO":999,"REV_AT_EPOCH":18959,"BSTAR":-1.5088e-5,"MEAN_MOTION_DOT":-5.28e-6,"MEAN_MOTION_DDOT":0},{"OBJECT_NAME":"OBJECT J","OBJECT_ID":"2017-042J","EPOCH":"2026-03-09T23:17:19.167936","MEAN_MOTION":15.08203331,"ECCENTRICITY":0.00078186,"INCLINATION":97.4246,"RA_OF_ASC_NODE":235.0467,"ARG_OF_PERICENTER":81.5059,"MEAN_ANOMALY":278.7055,"EPHEMERIS_TYPE":0,"CLASSIFICATION_TYPE":"U","NORAD_CAT_ID":42833,"ELEMENT_SET_NO":999,"REV_AT_EPOCH":47205,"BSTAR":0.00039182004,"MEAN_MOTION_DOT":6.006e-5,"MEAN_MOTION_DDOT":0}]
